[{"OBJECT_NAME":"ZIYUAN 1-02C (ZY 1-02C)","OBJECT_ID":"2011-079A","EPOCH":"2026-03-10T00:21:45.280224","MEAN_MOTION":14.38123973,"ECCENTRICITY":0.00053834,"INCLINATION":98.4167,"RA_OF_ASC_NODE":138.3624,"ARG_OF_PERICENTER":238.9134,"MEAN_ANOMALY":241.9717,"EPHEMERIS_TYPE":0,"CLASSIFICATION_TYPE":"U","NORAD_CAT_ID":38038,"ELEMENT_SET_NO":999,"REV_AT_EPOCH":74495,"BSTAR":0.00018700518,"MEAN_MOTION_DOT":5.24e-6,"MEAN_MOTION_DDOT":0},{"OBJECT_NAME":"FENGYUN 1C DEB","OBJECT_ID":"1999-025CBQ","EPOCH":"2026-03-08T12:48:44.066304","MEAN_MOTION":13.99713664,"ECCENTRICITY":0.02110303,"INCLINATION":98.154,"RA_OF_ASC_NODE":272.3598,"ARG_OF_PERICENTER":79.7346,"MEAN_ANOMALY":282.7542,"EPHEMERIS_TYPE":0,"CLASSIFICATION_TYPE":"U","NORAD_CAT_ID":31658,"ELEMENT_SET_NO":999,"REV_AT_EPOCH":71016,"BSTAR":0.0028198321,"MEAN_MOTION_DOT":4.968e-5,"MEAN_MOTION_DDOT":0}]
